[{"OBJECT_NAME":"KUIPER-00102","OBJECT_ID":"2025-171J","EPOCH":"2026-03-29T04:46:24.500352","MEAN_MOTION":14.79950523,"ECCENTRICITY":8.02e-5,"INCLINATION":51.8985,"RA_OF_ASC_NODE":66.8038,"ARG_OF_PERICENTER":55.5581,"MEAN_ANOMALY":304.5457,"EPHEMERIS_TYPE":0,"CLASSIFICATION_TYPE":"U","NORAD_CAT_ID":65140,"ELEMENT_SET_NO":999,"REV_AT_EPOCH":3584,"BSTAR":0.00069626,"MEAN_MOTION_DOT":5.093e-5,"MEAN_MOTION_DDOT":0},{"OBJECT_NAME":"KUIPER-00103","OBJECT_ID":"2025-171K","EPOCH":"2026-03-29T05:07:52.340736","MEAN_MOTION":14.79942171,"ECCENTRICITY":2.91e-5,"INCLINATION":51.8986,"RA_OF_ASC_NODE":84.2303,"ARG_OF_PERICENTER":86.8597,"MEAN_ANOMALY":273.2399,"EPHEMERIS_TYPE":0,"CLASSIFICATION_TYPE":"U","NORAD_CAT_ID":65141,"ELEMENT_SET_NO":999,"REV_AT_EPOCH":3560,"BSTAR":0.00062548,"MEAN_MOTION_DOT":4.551e-5,"MEAN_MOTION_DDOT":0},{"OBJECT_NAME":"KUIPER-00104","OBJECT_ID":"2025-171L","EPOCH":"2026-03-29T05:27:28.733760","MEAN_MOTION":14.79956732,"ECCENTRICITY":8.81e-5,"INCLINATION":51.9017,"RA_OF_ASC_NODE":71.6405,"ARG_OF_PERICENTER":42.3306,"MEAN_ANOMALY":317.7724,"EPHEMERIS_TYPE":0,"CLASSIFICATION_TYPE":"U","NORAD_CAT_ID":65142,"ELEMENT_SET_NO":999,"REV_AT_EPOCH":3578,"BSTAR":0.0019564,"MEAN_MOTION_DOT":0.00014734,"MEAN_MOTION_DDOT":0},{"OBJECT_NAME":"KUIPER-00105","OBJECT_ID":"2025-171M","EPOCH":"2026-03-29T04:28:02.175456","MEAN_MOTION":14.79920547,"ECCENTRICITY":5.19e-5,"INCLINATION":51.8999,"RA_OF_ASC_NODE":79.4465,"ARG_OF_PERICENTER":133.7281,"MEAN_ANOMALY":226.3725,"EPHEMERIS_TYPE":0,"CLASSIFICATION_TYPE":"U","NORAD_CAT_ID":65143,"ELEMENT_SET_NO":999,"REV_AT_EPOCH":3567,"BSTAR":0.00065668,"MEAN_MOTION_DOT":4.787e-5,"MEAN_MOTION_DDOT":0},{"OBJECT_NAME":"KUIPER-00106","OBJECT_ID":"2025-171N","EPOCH":"2026-03-29T04:49:41.208960","MEAN_MOTION":14.97248515,"ECCENTRICITY":0.0007381,"INCLINATION":51.8934,"RA_OF_ASC_NODE":66.3108,"ARG_OF_PERICENTER":160.3049,"MEAN_ANOMALY":199.8207,"EPHEMERIS_TYPE":0,"CLASSIFICATION_TYPE":"U","NORAD_CAT_ID":65144,"ELEMENT_SET_NO":999,"REV_AT_EPOCH":3586,"BSTAR":0.00078756,"MEAN_MOTION_DOT":8.975e-5,"MEAN_MOTION_DDOT":0},{"OBJECT_NAME":"KUIPER-00107","OBJECT_ID":"2025-171P","EPOCH":"2026-03-29T04:54:06.285888","MEAN_MOTION":14.79907324,"ECCENTRICITY":7.18e-5,"INCLINATION":51.9006,"RA_OF_ASC_NODE":61.7968,"ARG_OF_PERICENTER":89.419,"MEAN_ANOMALY":270.6855,"EPHEMERIS_TYPE":0,"CLASSIFICATION_TYPE":"U","NORAD_CAT_ID":65145,"ELEMENT_SET_NO":999,"REV_AT_EPOCH":3592,"BSTAR":0.00026356,"MEAN_MOTION_DOT":1.787e-5,"MEAN_MOTION_DDOT":0},{"OBJECT_NAME":"KUIPER-00108","OBJECT_ID":"2025-171Q","EPOCH":"2026-03-29T05:23:25.080576","MEAN_MOTION":14.79932042,"ECCENTRICITY":5.31e-5,"INCLINATION":51.9025,"RA_OF_ASC_NODE":74.2275,"ARG_OF_PERICENTER":56.9204,"MEAN_ANOMALY":303.1809,"EPHEMERIS_TYPE":0,"CLASSIFICATION_TYPE":"U","NORAD_CAT_ID":65146,"ELEMENT_SET_NO":999,"REV_AT_EPOCH":3575,"BSTAR":0.00067564,"MEAN_MOTION_DOT":4.933e-5,"MEAN_MOTION_DDOT":0},{"OBJECT_NAME":"KUIPER-00109","OBJECT_ID":"2025-171R","EPOCH":"2026-03-29T03:05:18.498912","MEAN_MOTION":14.79933789,"ECCENTRICITY":7.63e-5,"INCLINATION":51.9017,"RA_OF_ASC_NODE":69.594,"ARG_OF_PERICENTER":84.6664,"MEAN_ANOMALY":275.4385,"EPHEMERIS_TYPE":0,"CLASSIFICATION_TYPE":"U","NORAD_CAT_ID":65147,"ELEMENT_SET_NO":999,"REV_AT_EPOCH":3580,"BSTAR":0.00065353,"MEAN_MOTION_DOT":4.764e-5,"MEAN_MOTION_DDOT":0},{"OBJECT_NAME":"KUIPER-00110","OBJECT_ID":"2025-171S","EPOCH":"2026-03-29T05:11:47.982048","MEAN_MOTION":14.79886661,"ECCENTRICITY":7.58e-5,"INCLINATION":51.8994,"RA_OF_ASC_NODE":81.7878,"ARG_OF_PERICENTER":314.0081,"MEAN_ANOMALY":46.0818,"EPHEMERIS_TYPE":0,"CLASSIFICATION_TYPE":"U","NORAD_CAT_ID":65148,"ELEMENT_SET_NO":999,"REV_AT_EPOCH":3563,"BSTAR":-0.00055153,"MEAN_MOTION_DOT":-4.418e-5,"MEAN_MOTION_DDOT":0},{"OBJECT_NAME":"KUIPER-00111","OBJECT_ID":"2025-171T","EPOCH":"2026-03-29T04:15:31.639392","MEAN_MOTION":14.79955659,"ECCENTRICITY":4.51e-5,"INCLINATION":51.8965,"RA_OF_ASC_NODE":86.8674,"ARG_OF_PERICENTER":36.0952,"MEAN_ANOMALY":324.0041,"EPHEMERIS_TYPE":0,"CLASSIFICATION_TYPE":"U","NORAD_CAT_ID":65149,"ELEMENT_SET_NO":999,"REV_AT_EPOCH":3556,"BSTAR":0.00065765,"MEAN_MOTION_DOT":4.799e-5,"MEAN_MOTION_DDOT":0},{"OBJECT_NAME":"KUIPER-00112","OBJECT_ID":"2025-171U","EPOCH":"2026-03-29T05:31:11.281152","MEAN_MOTION":14.79938268,"ECCENTRICITY":8.77e-5,"INCLINATION":51.8996,"RA_OF_ASC_NODE":69.1988,"ARG_OF_PERICENTER":89.5255,"MEAN_ANOMALY":270.5808,"EPHEMERIS_TYPE":0,"CLASSIFICATION_TYPE":"U","NORAD_CAT_ID":65150,"ELEMENT_SET_NO":999,"REV_AT_EPOCH":3581,"BSTAR":0.00030368,"MEAN_MOTION_DOT":2.095e-5,"MEAN_MOTION_DDOT":0},{"OBJECT_NAME":"KUIPER-00114","OBJECT_ID":"2025-171V","EPOCH":"2026-03-29T04:11:29.081760","MEAN_MOTION":14.79943774,"ECCENTRICITY":7.27e-5,"INCLINATION":51.8991,"RA_OF_ASC_NODE":89.4384,"ARG_OF_PERICENTER":62.9018,"MEAN_ANOMALY":297.2018,"EPHEMERIS_TYPE":0,"CLASSIFICATION_TYPE":"U","NORAD_CAT_ID":65151,"ELEMENT_SET_NO":999,"REV_AT_EPOCH":3552,"BSTAR":0.00064992,"MEAN_MOTION_DOT":4.738e-5,"MEAN_MOTION_DDOT":0},{"OBJECT_NAME":"KUIPER-00115","OBJECT_ID":"2025-171W","EPOCH":"2026-03-29T04:23:08.449152","MEAN_MOTION":14.79931834,"ECCENTRICITY":7.6e-5,"INCLINATION":51.9002,"RA_OF_ASC_NODE":81.8926,"ARG_OF_PERICENTER":56.3754,"MEAN_ANOMALY":303.7281,"EPHEMERIS_TYPE":0,"CLASSIFICATION_TYPE":"U","NORAD_CAT_ID":65152,"ELEMENT_SET_NO":999,"REV_AT_EPOCH":3563,"BSTAR":5.3683e-5,"MEAN_MOTION_DOT":1.88e-6,"MEAN_MOTION_DDOT":0},{"OBJECT_NAME":"KUIPER-00116","OBJECT_ID":"2025-171X","EPOCH":"2026-03-29T05:04:01.815168","MEAN_MOTION":14.79916447,"ECCENTRICITY":4.3e-5,"INCLINATION":51.9001,"RA_OF_ASC_NODE":86.8038,"ARG_OF_PERICENTER":25.579,"MEAN_ANOMALY":334.5194,"EPHEMERIS_TYPE":0,"CLASSIFICATION_TYPE":"U","NORAD_CAT_ID":65153,"ELEMENT_SET_NO":999,"REV_AT_EPOCH":3556,"BSTAR":-0.00017948,"MEAN_MOTION_DOT":-1.588e-5,"MEAN_MOTION_DDOT":0},{"OBJECT_NAME":"KUIPER-00118","OBJECT_ID":"2025-171Y","EPOCH":"2026-03-29T05:00:07.729056","MEAN_MOTION":14.79941628,"ECCENTRICITY":6.7e-5,"INCLINATION":51.8995,"RA_OF_ASC_NODE":89.2729,"ARG_OF_PERICENTER":79.9248,"MEAN_ANOMALY":280.179,"EPHEMERIS_TYPE":0,"CLASSIFICATION_TYPE":"U","NORAD_CAT_ID":65154,"ELEMENT_SET_NO":999,"REV_AT_EPOCH":3553,"BSTAR":0.00061184,"MEAN_MOTION_DOT":4.447e-5,"MEAN_MOTION_DDOT":0},{"OBJECT_NAME":"KUIPER-00119","OBJECT_ID":"2025-171Z","EPOCH":"2026-03-29T03:41:52.534464","MEAN_MOTION":14.80019224,"ECCENTRICITY":7.69e-5,"INCLINATION":51.8999,"RA_OF_ASC_NODE":77.095,"ARG_OF_PERICENTER":103.8863,"MEAN_ANOMALY":256.2185,"EPHEMERIS_TYPE":0,"CLASSIFICATION_TYPE":"U","NORAD_CAT_ID":65155,"ELEMENT_SET_NO":999,"REV_AT_EPOCH":3569,"BSTAR":0.00070985,"MEAN_MOTION_DOT":5.205e-5,"MEAN_MOTION_DDOT":0},{"OBJECT_NAME":"KUIPER-00120","OBJECT_ID":"2025-217A","EPOCH":"2026-03-29T01:16:50.369664","MEAN_MOTION":14.79888332,"ECCENTRICITY":0.0001002,"INCLINATION":51.9007,"RA_OF_ASC_NODE":327.4406,"ARG_OF_PERICENTER":96.1227,"MEAN_ANOMALY":263.9849,"EPHEMERIS_TYPE":0,"CLASSIFICATION_TYPE":"U","NORAD_CAT_ID":65762,"ELEMENT_SET_NO":999,"REV_AT_EPOCH":2760,"BSTAR":0.0012317,"MEAN_MOTION_DOT":9.172e-5,"MEAN_MOTION_DDOT":0}]
