KUIPER-00102            
1 65140U 25171J   26088.19889468  .00005093  00000+0  69626-3 0  9997
2 65140  51.8985  66.8038 0000802  55.5581 304.5457 14.79950523 35847
KUIPER-00103            
1 65141U 25171K   26088.21380024  .00004551  00000+0  62548-3 0  9999
2 65141  51.8986  84.2303 0000291  86.8597 273.2399 14.79942171 35605
KUIPER-00104            
1 65142U 25171L   26088.22741590  .00014734  00000+0  19564-2 0  9993
2 65142  51.9017  71.6405 0000881  42.3306 317.7724 14.79956732 35788
KUIPER-00105            
1 65143U 25171M   26088.18613629  .00004787  00000+0  65668-3 0  9994
2 65143  51.8999  79.4465 0000519 133.7281 226.3725 14.79920547 35673
KUIPER-00106            
1 65144U 25171N   26088.20117140  .00008975  00000+0  78756-3 0  9990
2 65144  51.8934  66.3108 0007381 160.3049 199.8207 14.97248515 35862
KUIPER-00107            
1 65145U 25171P   26088.20423942  .00001787  00000+0  26356-3 0  9994
2 65145  51.9006  61.7968 0000718  89.4190 270.6855 14.79907324 35926
KUIPER-00108            
1 65146U 25171Q   26088.22459584  .00004933  00000+0  67564-3 0  9990
2 65146  51.9025  74.2275 0000531  56.9204 303.1809 14.79932042 35753
KUIPER-00109            
1 65147U 25171R   26088.12868633  .00004764  00000+0  65353-3 0  9995
2 65147  51.9017  69.5940 0000763  84.6664 275.4385 14.79933789 35801
KUIPER-00110            
1 65148U 25171S   26088.21652757 -.00004418  00000+0 -55153-3 0  9999
2 65148  51.8994  81.7878 0000758 314.0081  46.0818 14.79886661 35638
KUIPER-00111            
1 65149U 25171T   26088.17744953  .00004799  00000+0  65765-3 0  9995
2 65149  51.8965  86.8674 0000451  36.0952 324.0041 14.79955659 35568
KUIPER-00112            
1 65150U 25171U   26088.22999168  .00002095  00000+0  30368-3 0  9991
2 65150  51.8996  69.1988 0000877  89.5255 270.5808 14.79938268 35818
KUIPER-00114            
1 65151U 25171V   26088.17464215  .00004738  00000+0  64992-3 0  9992
2 65151  51.8991  89.4384 0000727  62.9018 297.2018 14.79943774 35520
KUIPER-00115            
1 65152U 25171W   26088.18273668  .00000188  00000+0  53683-4 0  9995
2 65152  51.9002  81.8926 0000760  56.3754 303.7281 14.79931834 35635
KUIPER-00116            
1 65153U 25171X   26088.21113212 -.00001588  00000+0 -17948-3 0  9998
2 65153  51.9001  86.8038 0000430  25.5790 334.5194 14.79916447 35566
KUIPER-00118            
1 65154U 25171Y   26088.20842279  .00004447  00000+0  61184-3 0  9996
2 65154  51.8995  89.2729 0000670  79.9248 280.1790 14.79941628 35533
KUIPER-00119            
1 65155U 25171Z   26088.15408026  .00005205  00000+0  70985-3 0  9991
2 65155  51.8999  77.0950 0000769 103.8863 256.2185 14.80019224 35697
KUIPER-00120            
1 65762U 25217A   26088.05336076  .00009172  00000+0  12317-2 0  9991
2 65762  51.9007 327.4406 0001002  96.1227 263.9849 14.79888332 27605
